{
  "type": "FeatureCollection",
  "features": [
    {
      "type": "Feature",
      "geometry": {
        "type": "Point",
        "coordinates": [
          -68.064841,
          -16.541677
        ]
      },
      "properties": {}
    },
    {
      "type": "Feature",
      "geometry": {
        "type": "LineString",
        "coordinates": [
          [
            -68.165601,
            -16.488677
          ],
          [
            -68.16544,
            -16.488652
          ],
          [
            -68.165279,
            -16.488585
          ],
          [
            -68.165081,
            -16.488446
          ],
          [
            -68.164936,
            -16.488189
          ],
          [
            -68.164877,
            -16.487885
          ],
          [
            -68.164904,
            -16.487695
          ],
          [
            -68.164952,
            -16.487469
          ],
          [
            -68.165145,
            -16.487258
          ],
          [
            -68.165429,
            -16.487119
          ],
          [
            -68.165048,
            -16.486913
          ],
          [
            -68.164705,
            -16.486738
          ],
          [
            -68.163804,
            -16.486759
          ],
          [
            -68.162677,
            -16.486851
          ],
          [
            -68.162323,
            -16.486836
          ],
          [
            -68.162071,
            -16.486733
          ],
          [
            -68.161798,
            -16.486707
          ],
          [
            -68.161524,
            -16.486949
          ],
          [
            -68.161411,
            -16.487088
          ],
          [
            -68.161229,
            -16.487165
          ],
          [
            -68.161036,
            -16.487114
          ],
          [
            -68.160853,
            -16.486934
          ],
          [
            -68.160676,
            -16.486625
          ],
          [
            -68.160467,
            -16.486476
          ],
          [
            -68.160054,
            -16.486311
          ],
          [
            -68.159577,
            -16.486106
          ],
          [
            -68.159233,
            -16.485854
          ],
          [
            -68.159051,
            -16.485761
          ],
          [
            -68.158343,
            -16.485596
          ],
          [
            -68.157506,
            -16.485339
          ],
          [
            -68.157206,
            -16.485252
          ],
          [
            -68.157055,
            -16.485288
          ],
          [
            -68.156943,
            -16.485411
          ],
          [
            -68.157002,
            -16.485571
          ],
          [
            -68.157356,
            -16.485632
          ],
          [
            -68.157586,
            -16.485653
          ],
          [
            -68.157855,
            -16.48574
          ],
          [
            -68.158375,
            -16.486013
          ],
          [
            -68.158606,
            -16.486286
          ],
          [
            -68.158751,
            -16.486677
          ],
          [
            -68.158917,
            -16.486949
          ],
          [
            -68.159062,
            -16.487062
          ],
          [
            -68.159394,
            -16.48716
          ],
          [
            -68.159689,
            -16.487232
          ],
          [
            -68.159775,
            -16.487294
          ],
          [
            -68.159845,
            -16.487422
          ],
          [
            -68.159748,
            -16.487623
          ],
          [
            -68.159571,
            -16.487669
          ],
          [
            -68.159416,
            -16.487633
          ],
          [
            -68.159035,
            -16.487443
          ],
          [
            -68.158595,
            -16.487253
          ],
          [
            -68.157967,
            -16.486975
          ],
          [
            -68.157619,
            -16.486893
          ],
          [
            -68.156219,
            -16.486821
          ],
          [
            -68.155618,
            -16.487026
          ],
          [
            -68.154888,
            -16.487304
          ],
          [
            -68.154802,
            -16.487026
          ],
          [
            -68.155103,
            -16.486358
          ],
          [
            -68.15506,
            -16.485252
          ],
          [
            -68.155264,
            -16.484645
          ],
          [
            -68.155586,
            -16.483528
          ],
          [
            -68.156122,
            -16.482597
          ],
          [
            -68.156283,
            -16.482206
          ],
          [
            -68.15594,
            -16.482001
          ],
          [
            -68.155296,
            -16.483127
          ],
          [
            -68.15477,
            -16.483847
          ],
          [
            -68.153987,
            -16.484074
          ],
          [
            -68.153526,
            -16.484362
          ],
          [
            -68.153408,
            -16.484763
          ],
          [
            -68.154008,
            -16.485391
          ],
          [
            -68.154159,
            -16.485884
          ],
          [
            -68.153172,
            -16.487037
          ],
          [
            -68.153,
            -16.487314
          ],
          [
            -68.152893,
            -16.487808
          ],
          [
            -68.152388,
            -16.488127
          ],
          [
            -68.151712,
            -16.489053
          ],
          [
            -68.152066,
            -16.490576
          ],
          [
            -68.151047,
            -16.490761
          ],
          [
            -68.151214,
            -16.491764
          ],
          [
            -68.150881,
            -16.491805
          ],
          [
            -68.151256,
            -16.492798
          ],
          [
            -68.151643,
            -16.493847
          ],
          [
            -68.152077,
            -16.494927
          ],
          [
            -68.152356,
            -16.495555
          ],
          [
            -68.151391,
            -16.495601
          ],
          [
            -68.150339,
            -16.495688
          ],
          [
            -68.149454,
            -16.495904
          ],
          [
            -68.148172,
            -16.495735
          ],
          [
            -68.14711,
            -16.495616
          ],
          [
            -68.146461,
            -16.495658
          ],
          [
            -68.145908,
            -16.495868
          ],
          [
            -68.145753,
            -16.495812
          ],
          [
            -68.145624,
            -16.495889
          ],
          [
            -68.145409,
            -16.496002
          ],
          [
            -68.145179,
            -16.49647
          ],
          [
            -68.144961,
            -16.496905
          ],
          [
            -68.145066,
            -16.497365
          ],
          [
            -68.145197,
            -16.497844
          ],
          [
            -68.145271,
            -16.498223
          ],
          [
            -68.144916,
            -16.498026
          ],
          [
            -68.144555,
            -16.49786
          ],
          [
            -68.144275,
            -16.497773
          ],
          [
            -68.143883,
            -16.49771
          ],
          [
            -68.143422,
            -16.497643
          ],
          [
            -68.143373,
            -16.497918
          ],
          [
            -68.143266,
            -16.498124
          ],
          [
            -68.142762,
            -16.497913
          ],
          [
            -68.142692,
            -16.498029
          ],
          [
            -68.142244,
            -16.498286
          ],
          [
            -68.14203,
            -16.49843
          ],
          [
            -68.14182,
            -16.498847
          ],
          [
            -68.141622,
            -16.499279
          ],
          [
            -68.141316,
            -16.499808
          ],
          [
            -68.141253,
            -16.499928
          ],
          [
            -68.141313,
            -16.499986
          ],
          [
            -68.141322,
            -16.500067
          ],
          [
            -68.141281,
            -16.500134
          ],
          [
            -68.141204,
            -16.500163
          ],
          [
            -68.141313,
            -16.500778
          ],
          [
            -68.141126,
            -16.50122
          ],
          [
            -68.140874,
            -16.501814
          ],
          [
            -68.140438,
            -16.501808
          ],
          [
            -68.139782,
            -16.501809
          ],
          [
            -68.139441,
            -16.501814
          ],
          [
            -68.139237,
            -16.501933
          ],
          [
            -68.138916,
            -16.502228
          ],
          [
            -68.138382,
            -16.502794
          ],
          [
            -68.137945,
            -16.503285
          ],
          [
            -68.137566,
            -16.503746
          ],
          [
            -68.137465,
            -16.503972
          ],
          [
            -68.136663,
            -16.503278
          ],
          [
            -68.135794,
            -16.502488
          ],
          [
            -68.135177,
            -16.501917
          ],
          [
            -68.134493,
            -16.501079
          ],
          [
            -68.133849,
            -16.501686
          ],
          [
            -68.133034,
            -16.50245
          ],
          [
            -68.132159,
            -16.503296
          ],
          [
            -68.1316,
            -16.503827
          ],
          [
            -68.131444,
            -16.503973
          ],
          [
            -68.131368,
            -16.504045
          ],
          [
            -68.131325,
            -16.504113
          ],
          [
            -68.131358,
            -16.504215
          ],
          [
            -68.131354,
            -16.504304
          ],
          [
            -68.131309,
            -16.504376
          ],
          [
            -68.131208,
            -16.504407
          ],
          [
            -68.131074,
            -16.504383
          ],
          [
            -68.130976,
            -16.50441
          ],
          [
            -68.130857,
            -16.504521
          ],
          [
            -68.130515,
            -16.504852
          ],
          [
            -68.129742,
            -16.505644
          ],
          [
            -68.129474,
            -16.505836
          ],
          [
            -68.127648,
            -16.507467
          ],
          [
            -68.126414,
            -16.508784
          ],
          [
            -68.125234,
            -16.510152
          ],
          [
            -68.124595,
            -16.510841
          ],
          [
            -68.12422,
            -16.511144
          ],
          [
            -68.123831,
            -16.51153
          ],
          [
            -68.1229,
            -16.512366
          ],
          [
            -68.12268,
            -16.512564
          ],
          [
            -68.121715,
            -16.513654
          ],
          [
            -68.120878,
            -16.51457
          ],
          [
            -68.120411,
            -16.515079
          ],
          [
            -68.120036,
            -16.515228
          ],
          [
            -68.119735,
            -16.515259
          ],
          [
            -68.119553,
            -16.515418
          ],
          [
            -68.119306,
            -16.51584
          ],
          [
            -68.11885,
            -16.516437
          ],
          [
            -68.118668,
            -16.51637
          ],
          [
            -68.118603,
            -16.516179
          ],
          [
            -68.118775,
            -16.515567
          ],
          [
            -68.118834,
            -16.514549
          ],
          [
            -68.119102,
            -16.513855
          ],
          [
            -68.119612,
            -16.512548
          ],
          [
            -68.119542,
            -16.512271
          ],
          [
            -68.119397,
            -16.51223
          ],
          [
            -68.119306,
            -16.512122
          ],
          [
            -68.118979,
            -16.512286
          ],
          [
            -68.11856,
            -16.513052
          ],
          [
            -68.118378,
            -16.513263
          ],
          [
            -68.117911,
            -16.513731
          ],
          [
            -68.117782,
            -16.513999
          ],
          [
            -68.117664,
            -16.51439
          ],
          [
            -68.117595,
            -16.515038
          ],
          [
            -68.117568,
            -16.515228
          ],
          [
            -68.117246,
            -16.515876
          ],
          [
            -68.116801,
            -16.516689
          ],
          [
            -68.116715,
            -16.517059
          ],
          [
            -68.116656,
            -16.517728
          ],
          [
            -68.116479,
            -16.518725
          ],
          [
            -68.11642,
            -16.519198
          ],
          [
            -68.116409,
            -16.519399
          ],
          [
            -68.116323,
            -16.520402
          ],
          [
            -68.116243,
            -16.520602
          ],
          [
            -68.116028,
            -16.520746
          ],
          [
            -68.115787,
            -16.520746
          ],
          [
            -68.11561,
            -16.520651
          ],
          [
            -68.115213,
            -16.520127
          ],
          [
            -68.115052,
            -16.519929
          ],
          [
            -68.114904,
            -16.519849
          ],
          [
            -68.114773,
            -16.519898
          ],
          [
            -68.114706,
            -16.519972
          ],
          [
            -68.114693,
            -16.520078
          ],
          [
            -68.114931,
            -16.520824
          ],
          [
            -68.114942,
            -16.520896
          ],
          [
            -68.114966,
            -16.522037
          ],
          [
            -68.114923,
            -16.522197
          ],
          [
            -68.114703,
            -16.522521
          ],
          [
            -68.114344,
            -16.522788
          ],
          [
            -68.113099,
            -16.523493
          ],
          [
            -68.11119,
            -16.524521
          ],
          [
            -68.109671,
            -16.52536
          ],
          [
            -68.108279,
            -16.526136
          ],
          [
            -68.107625,
            -16.526504
          ],
          [
            -68.106185,
            -16.527283
          ],
          [
            -68.104699,
            -16.52809
          ],
          [
            -68.103154,
            -16.528949
          ],
          [
            -68.101646,
            -16.52978
          ],
          [
            -68.101201,
            -16.530047
          ],
          [
            -68.100855,
            -16.530222
          ],
          [
            -68.10052,
            -16.53041
          ],
          [
            -68.100155,
            -16.530626
          ],
          [
            -68.100005,
            -16.53072
          ],
          [
            -68.09986,
            -16.530837
          ],
          [
            -68.099307,
            -16.53132
          ],
          [
            -68.099066,
            -16.531593
          ],
          [
            -68.098795,
            -16.531958
          ],
          [
            -68.097274,
            -16.533953
          ],
          [
            -68.096727,
            -16.534678
          ],
          [
            -68.096593,
            -16.534799
          ],
          [
            -68.096389,
            -16.535105
          ],
          [
            -68.096169,
            -16.535586
          ],
          [
            -68.094925,
            -16.538746
          ],
          [
            -68.093927,
            -16.541081
          ],
          [
            -68.093728,
            -16.541374
          ],
          [
            -68.093498,
            -16.541595
          ],
          [
            -68.093278,
            -16.541687
          ],
          [
            -68.09309,
            -16.541698
          ],
          [
            -68.092511,
            -16.541559
          ],
          [
            -68.09217,
            -16.541466
          ],
          [
            -68.092068,
            -16.541471
          ],
          [
            -68.091229,
            -16.541235
          ],
          [
            -68.089399,
            -16.540705
          ],
          [
            -68.086342,
            -16.539846
          ],
          [
            -68.084142,
            -16.539235
          ],
          [
            -68.082747,
            -16.538839
          ],
          [
            -68.082415,
            -16.538792
          ],
          [
            -68.082109,
            -16.538782
          ],
          [
            -68.079979,
            -16.5389
          ],
          [
            -68.077855,
            -16.539029
          ],
          [
            -68.076171,
            -16.539116
          ],
          [
            -68.07557,
            -16.539163
          ],
          [
            -68.074969,
            -16.539764
          ],
          [
            -68.074636,
            -16.540011
          ],
          [
            -68.074239,
            -16.540191
          ],
          [
            -68.073848,
            -16.540206
          ],
          [
            -68.073392,
            -16.540083
          ],
          [
            -68.073065,
            -16.539877
          ],
          [
            -68.07277,
            -16.539564
          ],
          [
            -68.072625,
            -16.539507
          ],
          [
            -68.072163,
            -16.539497
          ],
          [
            -68.071809,
            -16.539512
          ],
          [
            -68.071496,
            -16.539582
          ],
          [
            -68.070981,
            -16.539839
          ],
          [
            -68.070637,
            -16.540026
          ],
          [
            -68.070466,
            -16.540104
          ],
          [
            -68.070267,
            -16.540155
          ],
          [
            -68.069473,
            -16.540371
          ],
          [
            -68.068878,
            -16.540572
          ],
          [
            -68.068524,
            -16.540677
          ],
          [
            -68.068044,
            -16.540718
          ],
          [
            -68.067531,
            -16.540757
          ],
          [
            -68.066893,
            -16.540726
          ],
          [
            -68.065887,
            -16.540672
          ],
          [
            -68.065329,
            -16.540631
          ]
        ]
      },
      "properties": {}
    },
    {
      "type": "Feature",
      "geometry": {
        "type": "Point",
        "coordinates": [
          -68.12459,
          -16.502519
        ]
      },
      "properties": {}
    },
    {
      "type": "Feature",
      "geometry": {
        "type": "LineString",
        "coordinates": [
          [
            -68.125121,
            -16.502442
          ],
          [
            -68.124558,
            -16.502218
          ],
          [
            -68.124303,
            -16.501951
          ],
          [
            -68.124144,
            -16.5019
          ],
          [
            -68.123822,
            -16.502877
          ],
          [
            -68.122932,
            -16.502836
          ],
          [
            -68.122932,
            -16.502743
          ],
          [
            -68.122117,
            -16.502764
          ],
          [
            -68.123865,
            -16.500029
          ],
          [
            -68.12393,
            -16.4997
          ],
          [
            -68.123951,
            -16.49936
          ],
          [
            -68.12423,
            -16.499011
          ],
          [
            -68.124273,
            -16.498527
          ],
          [
            -68.124295,
            -16.497211
          ],
          [
            -68.124123,
            -16.496985
          ],
          [
            -68.124166,
            -16.496779
          ],
          [
            -68.124337,
            -16.496656
          ],
          [
            -68.124166,
            -16.493799
          ],
          [
            -68.124058,
            -16.492974
          ],
          [
            -68.124037,
            -16.492131
          ],
          [
            -68.124166,
            -16.490671
          ],
          [
            -68.124144,
            -16.489231
          ],
          [
            -68.124488,
            -16.489293
          ],
          [
            -68.125196,
            -16.49028
          ],
          [
            -68.125539,
            -16.489416
          ],
          [
            -68.125572,
            -16.489302
          ],
          [
            -68.125529,
            -16.489174
          ],
          [
            -68.125324,
            -16.488963
          ],
          [
            -68.125046,
            -16.488649
          ],
          [
            -68.124885,
            -16.488211
          ],
          [
            -68.124188,
            -16.486484
          ],
          [
            -68.124067,
            -16.486054
          ],
          [
            -68.12393,
            -16.485794
          ],
          [
            -68.123731,
            -16.485505
          ],
          [
            -68.123554,
            -16.485176
          ],
          [
            -68.123436,
            -16.484867
          ],
          [
            -68.123166,
            -16.48413
          ],
          [
            -68.122991,
            -16.483747
          ],
          [
            -68.122793,
            -16.483384
          ],
          [
            -68.122138,
            -16.482462
          ],
          [
            -68.121894,
            -16.482176
          ],
          [
            -68.121642,
            -16.481425
          ],
          [
            -68.121363,
            -16.480686
          ],
          [
            -68.121054,
            -16.479833
          ],
          [
            -68.120282,
            -16.478558
          ],
          [
            -68.119692,
            -16.477538
          ],
          [
            -68.118984,
            -16.47644
          ],
          [
            -68.118496,
            -16.475617
          ],
          [
            -68.11874,
            -16.475527
          ],
          [
            -68.118928,
            -16.475594
          ],
          [
            -68.120542,
            -16.476196
          ],
          [
            -68.120886,
            -16.476808
          ],
          [
            -68.12142,
            -16.476561
          ],
          [
            -68.122803,
            -16.477586
          ],
          [
            -68.123058,
            -16.47697
          ]
        ]
      },
      "properties": {}
    },
    {
      "type": "Feature",
      "geometry": {
        "type": "LineString",
        "coordinates": [
          [
            -68.122997,
            -16.477175
          ],
          [
            -68.122793,
            -16.477602
          ],
          [
            -68.121999,
            -16.47698
          ],
          [
            -68.121398,
            -16.476563
          ],
          [
            -68.120926,
            -16.476826
          ],
          [
            -68.120717,
            -16.476507
          ],
          [
            -68.119585,
            -16.477253
          ],
          [
            -68.120293,
            -16.478384
          ],
          [
            -68.1204,
            -16.478461
          ],
          [
            -68.120406,
            -16.478543
          ],
          [
            -68.120706,
            -16.479094
          ],
          [
            -68.121012,
            -16.479628
          ],
          [
            -68.121151,
            -16.479896
          ],
          [
            -68.121285,
            -16.480235
          ],
          [
            -68.121505,
            -16.480821
          ],
          [
            -68.121613,
            -16.481176
          ],
          [
            -68.121709,
            -16.481387
          ],
          [
            -68.121924,
            -16.48205
          ],
          [
            -68.121972,
            -16.482256
          ],
          [
            -68.122187,
            -16.482467
          ],
          [
            -68.122391,
            -16.482712
          ],
          [
            -68.122892,
            -16.483412
          ],
          [
            -68.123302,
            -16.484277
          ],
          [
            -68.123453,
            -16.484647
          ],
          [
            -68.123619,
            -16.485105
          ],
          [
            -68.123748,
            -16.485387
          ],
          [
            -68.123957,
            -16.485717
          ],
          [
            -68.124177,
            -16.486097
          ],
          [
            -68.12429,
            -16.486601
          ],
          [
            -68.124467,
            -16.487084
          ],
          [
            -68.124633,
            -16.487439
          ],
          [
            -68.125134,
            -16.488609
          ],
          [
            -68.125159,
            -16.488724
          ],
          [
            -68.125016,
            -16.489118
          ],
          [
            -68.124748,
            -16.489686
          ],
          [
            -68.124129,
            -16.490946
          ],
          [
            -68.124086,
            -16.491954
          ],
          [
            -68.124107,
            -16.493301
          ],
          [
            -68.124354,
            -16.495327
          ],
          [
            -68.124343,
            -16.496633
          ],
          [
            -68.124526,
            -16.496921
          ],
          [
            -68.12445,
            -16.497117
          ],
          [
            -68.125813,
            -16.497631
          ],
          [
            -68.125062,
            -16.498713
          ],
          [
            -68.124526,
            -16.499698
          ],
          [
            -68.123989,
            -16.500511
          ],
          [
            -68.123952,
            -16.50076
          ],
          [
            -68.124011,
            -16.501004
          ],
          [
            -68.124247,
            -16.501611
          ],
          [
            -68.124198,
            -16.501881
          ],
          [
            -68.124536,
            -16.50221
          ],
          [
            -68.124794,
            -16.502308
          ]
        ]
      },
      "properties": {}
    },
    {
      "type": "Feature",
      "geometry": {
        "type": "LineString",
        "coordinates": [
          [
            -68.123541,
            -16.485162
          ],
          [
            -68.123332,
            -16.484573
          ],
          [
            -68.123257,
            -16.484408
          ],
          [
            -68.123117,
            -16.484015
          ],
          [
            -68.122938,
            -16.483626
          ],
          [
            -68.122578,
            -16.483055
          ],
          [
            -68.122428,
            -16.482851
          ],
          [
            -68.122274,
            -16.482664
          ],
          [
            -68.122078,
            -16.482434
          ],
          [
            -68.121877,
            -16.482241
          ],
          [
            -68.121888,
            -16.482107
          ],
          [
            -68.121845,
            -16.481899
          ],
          [
            -68.121791,
            -16.481877
          ],
          [
            -68.121662,
            -16.481481
          ],
          [
            -68.121591,
            -16.481265
          ],
          [
            -68.121417,
            -16.480793
          ],
          [
            -68.121272,
            -16.480403
          ],
          [
            -68.121112,
            -16.479941
          ],
          [
            -68.120878,
            -16.479519
          ],
          [
            -68.120663,
            -16.479152
          ],
          [
            -68.120339,
            -16.478603
          ],
          [
            -68.120329,
            -16.478577
          ],
          [
            -68.12029,
            -16.478572
          ],
          [
            -68.120257,
            -16.478531
          ],
          [
            -68.120273,
            -16.478477
          ],
          [
            -68.120027,
            -16.478102
          ],
          [
            -68.119787,
            -16.477735
          ],
          [
            -68.119541,
            -16.477343
          ],
          [
            -68.119283,
            -16.476916
          ],
          [
            -68.119122,
            -16.476653
          ],
          [
            -68.118991,
            -16.47643
          ],
          [
            -68.118845,
            -16.476181
          ],
          [
            -68.118639,
            -16.475842
          ],
          [
            -68.11831,
            -16.475295
          ],
          [
            -68.118256,
            -16.475203
          ],
          [
            -68.118209,
            -16.475121
          ],
          [
            -68.118143,
            -16.475127
          ],
          [
            -68.118059,
            -16.475118
          ],
          [
            -68.117989,
            -16.475093
          ],
          [
            -68.117931,
            -16.475045
          ],
          [
            -68.117894,
            -16.474975
          ],
          [
            -68.117884,
            -16.474865
          ],
          [
            -68.117803,
            -16.474805
          ],
          [
            -68.117613,
            -16.474753
          ],
          [
            -68.117241,
            -16.474646
          ],
          [
            -68.117077,
            -16.474506
          ],
          [
            -68.116769,
            -16.474048
          ],
          [
            -68.116632,
            -16.474043
          ],
          [
            -68.116369,
            -16.473937
          ],
          [
            -68.116063,
            -16.473796
          ],
          [
            -68.115782,
            -16.473665
          ],
          [
            -68.115623,
            -16.473464
          ],
          [
            -68.115551,
            -16.473348
          ],
          [
            -68.115473,
            -16.473024
          ],
          [
            -68.115253,
            -16.472875
          ],
          [
            -68.115175,
            -16.472741
          ],
          [
            -68.11517,
            -16.472281
          ],
          [
            -68.115073,
            -16.471985
          ],
          [
            -68.115114,
            -16.471602
          ],
          [
            -68.115031,
            -16.471484
          ],
          [
            -68.114827,
            -16.471386
          ],
          [
            -68.114521,
            -16.471267
          ],
          [
            -68.114001,
            -16.471108
          ],
          [
            -68.11392,
            -16.470979
          ],
          [
            -68.113405,
            -16.470426
          ],
          [
            -68.1126,
            -16.469536
          ],
          [
            -68.112161,
            -16.469027
          ],
          [
            -68.111874,
            -16.469217
          ],
          [
            -68.111525,
            -16.469475
          ],
          [
            -68.11144,
            -16.469441
          ],
          [
            -68.111324,
            -16.469342
          ],
          [
            -68.111058,
            -16.469094
          ],
          [
            -68.110958,
            -16.469009
          ],
          [
            -68.110895,
            -16.468888
          ],
          [
            -68.110864,
            -16.468783
          ],
          [
            -68.110928,
            -16.468526
          ],
          [
            -68.110988,
            -16.4683
          ],
          [
            -68.110813,
            -16.468221
          ],
          [
            -68.110567,
            -16.468029
          ],
          [
            -68.109602,
            -16.467031
          ],
          [
            -68.109229,
            -16.466681
          ],
          [
            -68.108859,
            -16.46646
          ],
          [
            -68.10821,
            -16.465956
          ],
          [
            -68.107767,
            -16.465524
          ],
          [
            -68.106898,
            -16.465081
          ],
          [
            -68.105997,
            -16.464603
          ],
          [
            -68.105734,
            -16.464521
          ],
          [
            -68.105501,
            -16.464436
          ],
          [
            -68.105364,
            -16.464364
          ],
          [
            -68.10516,
            -16.464155
          ],
          [
            -68.104903,
            -16.463924
          ],
          [
            -68.104634,
            -16.463739
          ],
          [
            -68.104044,
            -16.463389
          ],
          [
            -68.103763,
            -16.463165
          ],
          [
            -68.10303,
            -16.462576
          ],
          [
            -68.102075,
            -16.461779
          ],
          [
            -68.101763,
            -16.461516
          ],
          [
            -68.101544,
            -16.461312
          ],
          [
            -68.101461,
            -16.461228
          ],
          [
            -68.101442,
            -16.461164
          ],
          [
            -68.101464,
            -16.461111
          ],
          [
            -68.101499,
            -16.461067
          ],
          [
            -68.101665,
            -16.460935
          ]
        ]
      },
      "properties": {}
    },
    {
      "type": "Feature",
      "geometry": {
        "type": "LineString",
        "coordinates": [
          [
            -68.101646,
            -16.460947
          ],
          [
            -68.101475,
            -16.461089
          ],
          [
            -68.101444,
            -16.461169
          ],
          [
            -68.101487,
            -16.461247
          ],
          [
            -68.101768,
            -16.461519
          ],
          [
            -68.102436,
            -16.462074
          ],
          [
            -68.103046,
            -16.462582
          ],
          [
            -68.103343,
            -16.462835
          ],
          [
            -68.103811,
            -16.463222
          ],
          [
            -68.104011,
            -16.463366
          ],
          [
            -68.104496,
            -16.463633
          ],
          [
            -68.104826,
            -16.463874
          ],
          [
            -68.105293,
            -16.464276
          ],
          [
            -68.105416,
            -16.464382
          ],
          [
            -68.105536,
            -16.464447
          ],
          [
            -68.105978,
            -16.464595
          ],
          [
            -68.10682,
            -16.465042
          ],
          [
            -68.107717,
            -16.465488
          ],
          [
            -68.107865,
            -16.465597
          ],
          [
            -68.107988,
            -16.465762
          ],
          [
            -68.108045,
            -16.465822
          ],
          [
            -68.108152,
            -16.465911
          ],
          [
            -68.108591,
            -16.466239
          ],
          [
            -68.108951,
            -16.466524
          ],
          [
            -68.109304,
            -16.466725
          ],
          [
            -68.110369,
            -16.467816
          ],
          [
            -68.110701,
            -16.468135
          ],
          [
            -68.110806,
            -16.468219
          ],
          [
            -68.110983,
            -16.468297
          ],
          [
            -68.110876,
            -16.468752
          ],
          [
            -68.110895,
            -16.468911
          ],
          [
            -68.11098,
            -16.469032
          ],
          [
            -68.111503,
            -16.469485
          ],
          [
            -68.112153,
            -16.46903
          ],
          [
            -68.113284,
            -16.47029
          ],
          [
            -68.114105,
            -16.47117
          ],
          [
            -68.114569,
            -16.471278
          ],
          [
            -68.114907,
            -16.471401
          ],
          [
            -68.115052,
            -16.471509
          ],
          [
            -68.115114,
            -16.471656
          ],
          [
            -68.115073,
            -16.471995
          ],
          [
            -68.115167,
            -16.472268
          ],
          [
            -68.115183,
            -16.472731
          ],
          [
            -68.115256,
            -16.472878
          ],
          [
            -68.115382,
            -16.472937
          ],
          [
            -68.115457,
            -16.473022
          ],
          [
            -68.116551,
            -16.472399
          ],
          [
            -68.117603,
            -16.473922
          ],
          [
            -68.118002,
            -16.474565
          ],
          [
            -68.118037,
            -16.474678
          ],
          [
            -68.118131,
            -16.474663
          ],
          [
            -68.118225,
            -16.474678
          ],
          [
            -68.118295,
            -16.474727
          ],
          [
            -68.118356,
            -16.474827
          ],
          [
            -68.118351,
            -16.474925
          ],
          [
            -68.118338,
            -16.47501
          ],
          [
            -68.118289,
            -16.475082
          ],
          [
            -68.118912,
            -16.47608
          ],
          [
            -68.119378,
            -16.476913
          ],
          [
            -68.119869,
            -16.4777
          ],
          [
            -68.120319,
            -16.478437
          ],
          [
            -68.120367,
            -16.478451
          ],
          [
            -68.120396,
            -16.478492
          ],
          [
            -68.120403,
            -16.478526
          ],
          [
            -68.120387,
            -16.478557
          ],
          [
            -68.120749,
            -16.479169
          ],
          [
            -68.120942,
            -16.479502
          ],
          [
            -68.121161,
            -16.479894
          ],
          [
            -68.121602,
            -16.481072
          ],
          [
            -68.121758,
            -16.481497
          ],
          [
            -68.121876,
            -16.481844
          ],
          [
            -68.121849,
            -16.481921
          ],
          [
            -68.121881,
            -16.482008
          ],
          [
            -68.121902,
            -16.482129
          ],
          [
            -68.121991,
            -16.482291
          ],
          [
            -68.121948,
            -16.483192
          ],
          [
            -68.122138,
            -16.483256
          ],
          [
            -68.122326,
            -16.483372
          ],
          [
            -68.122533,
            -16.483626
          ],
          [
            -68.122586,
            -16.483927
          ],
          [
            -68.122576,
            -16.484148
          ]
        ]
      },
      "properties": {}
    },
    {
      "type": "Feature",
      "geometry": {
        "type": "Point",
        "coordinates": [
          -68.121854,
          -16.484184
        ]
      },
      "properties": {}
    },
    {
      "type": "Feature",
      "geometry": {
        "type": "Point",
        "coordinates": [
          -68.127396,
          -16.495493
        ]
      },
      "properties": {}
    },
    {
      "type": "Feature",
      "geometry": {
        "type": "LineString",
        "coordinates": [
          [
            -68.111871,
            -16.465362
          ],
          [
            -68.111029,
            -16.464909
          ],
          [
            -68.110927,
            -16.465097
          ],
          [
            -68.110793,
            -16.465333
          ],
          [
            -68.110586,
            -16.465207
          ],
          [
            -68.110506,
            -16.465207
          ],
          [
            -68.110578,
            -16.465606
          ],
          [
            -68.110704,
            -16.465868
          ],
          [
            -68.111418,
            -16.466607
          ],
          [
            -68.111678,
            -16.466848
          ],
          [
            -68.112182,
            -16.467178
          ],
          [
            -68.112515,
            -16.467381
          ],
          [
            -68.112818,
            -16.46752
          ],
          [
            -68.113443,
            -16.46774
          ],
          [
            -68.113617,
            -16.467807
          ],
          [
            -68.113837,
            -16.467931
          ],
          [
            -68.113955,
            -16.468028
          ],
          [
            -68.114179,
            -16.468279
          ],
          [
            -68.114395,
            -16.46851
          ],
          [
            -68.114524,
            -16.468657
          ],
          [
            -68.114634,
            -16.468745
          ],
          [
            -68.114756,
            -16.468807
          ],
          [
            -68.114864,
            -16.468794
          ],
          [
            -68.115024,
            -16.468799
          ],
          [
            -68.115167,
            -16.468754
          ],
          [
            -68.115271,
            -16.468684
          ],
          [
            -68.115469,
            -16.468472
          ],
          [
            -68.115594,
            -16.468376
          ],
          [
            -68.115733,
            -16.468329
          ],
          [
            -68.115855,
            -16.468313
          ],
          [
            -68.115965,
            -16.468331
          ],
          [
            -68.116124,
            -16.468397
          ],
          [
            -68.116239,
            -16.468499
          ],
          [
            -68.116327,
            -16.46861
          ],
          [
            -68.11638,
            -16.468751
          ],
          [
            -68.116398,
            -16.468938
          ],
          [
            -68.116352,
            -16.469127
          ],
          [
            -68.116181,
            -16.469446
          ],
          [
            -68.116062,
            -16.469719
          ],
          [
            -68.116043,
            -16.469832
          ],
          [
            -68.116136,
            -16.470325
          ],
          [
            -68.116158,
            -16.470462
          ],
          [
            -68.116164,
            -16.471032
          ],
          [
            -68.116242,
            -16.471513
          ],
          [
            -68.116268,
            -16.471706
          ],
          [
            -68.116329,
            -16.471972
          ],
          [
            -68.116396,
            -16.472156
          ],
          [
            -68.117093,
            -16.473195
          ],
          [
            -68.117383,
            -16.473603
          ],
          [
            -68.117654,
            -16.474005
          ],
          [
            -68.117792,
            -16.474213
          ],
          [
            -68.117939,
            -16.474463
          ],
          [
            -68.118013,
            -16.474591
          ],
          [
            -68.118048,
            -16.474678
          ],
          [
            -68.118104,
            -16.474665
          ],
          [
            -68.118162,
            -16.474668
          ],
          [
            -68.11823,
            -16.474686
          ],
          [
            -68.118292,
            -16.474724
          ],
          [
            -68.118338,
            -16.474785
          ],
          [
            -68.118358,
            -16.474847
          ],
          [
            -68.118366,
            -16.474919
          ],
          [
            -68.11835,
            -16.474991
          ],
          [
            -68.118289,
            -16.475069
          ],
          [
            -68.118485,
            -16.475383
          ],
          [
            -68.118957,
            -16.476133
          ],
          [
            -68.119319,
            -16.476828
          ],
          [
            -68.119581,
            -16.477255
          ],
          [
            -68.120176,
            -16.478198
          ],
          [
            -68.12032,
            -16.47844
          ],
          [
            -68.120357,
            -16.478445
          ],
          [
            -68.120394,
            -16.478471
          ],
          [
            -68.1204,
            -16.478525
          ],
          [
            -68.120384,
            -16.478562
          ],
          [
            -68.120815,
            -16.47928
          ],
          [
            -68.121047,
            -16.479691
          ],
          [
            -68.121161,
            -16.479916
          ],
          [
            -68.121342,
            -16.480402
          ],
          [
            -68.121519,
            -16.480887
          ],
          [
            -68.121704,
            -16.48134
          ],
          [
            -68.121812,
            -16.48168
          ],
          [
            -68.121866,
            -16.481857
          ],
          [
            -68.121854,
            -16.481908
          ],
          [
            -68.121889,
            -16.482101
          ],
          [
            -68.121981,
            -16.48225
          ],
          [
            -68.122326,
            -16.48263
          ],
          [
            -68.122624,
            -16.483013
          ],
          [
            -68.12292,
            -16.483449
          ],
          [
            -68.123058,
            -16.483711
          ],
          [
            -68.123265,
            -16.484193
          ],
          [
            -68.123402,
            -16.484555
          ],
          [
            -68.12364,
            -16.485208
          ],
          [
            -68.123693,
            -16.485328
          ],
          [
            -68.123956,
            -16.485699
          ],
          [
            -68.124094,
            -16.48596
          ],
          [
            -68.12417,
            -16.486153
          ],
          [
            -68.124279,
            -16.486548
          ],
          [
            -68.124386,
            -16.48688
          ],
          [
            -68.124515,
            -16.487173
          ],
          [
            -68.12477,
            -16.487713
          ],
          [
            -68.125172,
            -16.48867
          ],
          [
            -68.125164,
            -16.488765
          ],
          [
            -68.125545,
            -16.489157
          ],
          [
            -68.125588,
            -16.489257
          ],
          [
            -68.125581,
            -16.489373
          ],
          [
            -68.125381,
            -16.489898
          ],
          [
            -68.125282,
            -16.490858
          ],
          [
            -68.125199,
            -16.491489
          ],
          [
            -68.125172,
            -16.492232
          ],
          [
            -68.125199,
            -16.492708
          ],
          [
            -68.125134,
            -16.492875
          ],
          [
            -68.124939,
            -16.493163
          ],
          [
            -68.124952,
            -16.493356
          ],
          [
            -68.125023,
            -16.493466
          ],
          [
            -68.125191,
            -16.493675
          ],
          [
            -68.125513,
            -16.494054
          ],
          [
            -68.125769,
            -16.494361
          ],
          [
            -68.125804,
            -16.494432
          ],
          [
            -68.125818,
            -16.494501
          ],
          [
            -68.125822,
            -16.4946
          ],
          [
            -68.1258,
            -16.495004
          ],
          [
            -68.125816,
            -16.4952
          ],
          [
            -68.125931,
            -16.495534
          ],
          [
            -68.12603,
            -16.495796
          ]
        ]
      },
      "properties": {}
    },
    {
      "type": "Feature",
      "geometry": {
        "type": "LineString",
        "coordinates": [
          [
            -68.128957,
            -16.51331
          ],
          [
            -68.128356,
            -16.512605
          ],
          [
            -68.127916,
            -16.512286
          ],
          [
            -68.125797,
            -16.510584
          ],
          [
            -68.124515,
            -16.509545
          ],
          [
            -68.124644,
            -16.50899
          ],
          [
            -68.129697,
            -16.50543
          ],
          [
            -68.130952,
            -16.504331
          ],
          [
            -68.130936,
            -16.504093
          ],
          [
            -68.131006,
            -16.503879
          ],
          [
            -68.133109,
            -16.500915
          ],
          [
            -68.133962,
            -16.50031
          ],
          [
            -68.135582,
            -16.498146
          ],
          [
            -68.133667,
            -16.495184
          ],
          [
            -68.13004,
            -16.497303
          ],
          [
            -68.12959,
            -16.497221
          ],
          [
            -68.12856,
            -16.497262
          ],
          [
            -68.128238,
            -16.49743
          ],
          [
            -68.127937,
            -16.497471
          ],
          [
            -68.127508,
            -16.496751
          ],
          [
            -68.126349,
            -16.496995
          ],
          [
            -68.125513,
            -16.496789
          ],
          [
            -68.124611,
            -16.496874
          ],
          [
            -68.12429,
            -16.497121
          ],
          [
            -68.124268,
            -16.499074
          ],
          [
            -68.124644,
            -16.499341
          ],
          [
            -68.124654,
            -16.499753
          ],
          [
            -68.124129,
            -16.499763
          ],
          [
            -68.123324,
            -16.500061
          ],
          [
            -68.123206,
            -16.500307
          ],
          [
            -68.122991,
            -16.500513
          ],
          [
            -68.122401,
            -16.500503
          ],
          [
            -68.121972,
            -16.500174
          ],
          [
            -68.121865,
            -16.499444
          ],
          [
            -68.119601,
            -16.499352
          ],
          [
            -68.119247,
            -16.499866
          ],
          [
            -68.117552,
            -16.499814
          ],
          [
            -68.117777,
            -16.498764
          ],
          [
            -68.118442,
            -16.498652
          ],
          [
            -68.11973,
            -16.496575
          ],
          [
            -68.119762,
            -16.493294
          ],
          [
            -68.119537,
            -16.491422
          ],
          [
            -68.119172,
            -16.491371
          ],
          [
            -68.119118,
            -16.492664
          ],
          [
            -68.1187,
            -16.493788
          ],
          [
            -68.118453,
            -16.495001
          ],
          [
            -68.118378,
            -16.494734
          ],
          [
            -68.117895,
            -16.495444
          ],
          [
            -68.116844,
            -16.495886
          ],
          [
            -68.116822,
            -16.495269
          ],
          [
            -68.11767,
            -16.491443
          ],
          [
            -68.117069,
            -16.491278
          ],
          [
            -68.117037,
            -16.490888
          ],
          [
            -68.116297,
            -16.490291
          ],
          [
            -68.115213,
            -16.490085
          ],
          [
            -68.114129,
            -16.490096
          ],
          [
            -68.113915,
            -16.490414
          ],
          [
            -68.113765,
            -16.490414
          ],
          [
            -68.113571,
            -16.49097
          ],
          [
            -68.113035,
            -16.490545
          ],
          [
            -68.11237,
            -16.490219
          ]
        ]
      },
      "properties": {}
    },
    {
      "type": "Feature",
      "geometry": {
        "type": "Point",
        "coordinates": [
          -68.128978,
          -16.51336
        ]
      },
      "properties": {}
    },
    {
      "type": "Feature",
      "geometry": {
        "type": "LineString",
        "coordinates": [
          [
            -68.112112,
            -16.490393
          ],
          [
            -68.11229,
            -16.490216
          ],
          [
            -68.112638,
            -16.490334
          ],
          [
            -68.113373,
            -16.490776
          ],
          [
            -68.113502,
            -16.490971
          ],
          [
            -68.113604,
            -16.490915
          ],
          [
            -68.113786,
            -16.490416
          ],
          [
            -68.113953,
            -16.490411
          ],
          [
            -68.114098,
            -16.490092
          ],
          [
            -68.115181,
            -16.490061
          ],
          [
            -68.116383,
            -16.490308
          ],
          [
            -68.116962,
            -16.490884
          ],
          [
            -68.117109,
            -16.490727
          ],
          [
            -68.117027,
            -16.491275
          ],
          [
            -68.117681,
            -16.491393
          ],
          [
            -68.117166,
            -16.493805
          ],
          [
            -68.116758,
            -16.495564
          ],
          [
            -68.116871,
            -16.495797
          ],
          [
            -68.117027,
            -16.495841
          ],
          [
            -68.117431,
            -16.495665
          ],
          [
            -68.117831,
            -16.495466
          ],
          [
            -68.117954,
            -16.495344
          ],
          [
            -68.118078,
            -16.495157
          ],
          [
            -68.118327,
            -16.494791
          ],
          [
            -68.11835,
            -16.494671
          ],
          [
            -68.118393,
            -16.494652
          ],
          [
            -68.118451,
            -16.49466
          ],
          [
            -68.118503,
            -16.494689
          ],
          [
            -68.118547,
            -16.494757
          ],
          [
            -68.118518,
            -16.494844
          ],
          [
            -68.118496,
            -16.494987
          ],
          [
            -68.118121,
            -16.495605
          ],
          [
            -68.11804,
            -16.495944
          ],
          [
            -68.118169,
            -16.496054
          ],
          [
            -68.118368,
            -16.496157
          ],
          [
            -68.118496,
            -16.496237
          ],
          [
            -68.118561,
            -16.49651
          ],
          [
            -68.118545,
            -16.496834
          ],
          [
            -68.118588,
            -16.49699
          ],
          [
            -68.11884,
            -16.497086
          ],
          [
            -68.120969,
            -16.498091
          ],
          [
            -68.121881,
            -16.498093
          ],
          [
            -68.122039,
            -16.498283
          ],
          [
            -68.122203,
            -16.498512
          ],
          [
            -68.122412,
            -16.49843
          ],
          [
            -68.122654,
            -16.49841
          ],
          [
            -68.122884,
            -16.498445
          ],
          [
            -68.123094,
            -16.498525
          ],
          [
            -68.123496,
            -16.498957
          ],
          [
            -68.124051,
            -16.499153
          ],
          [
            -68.124177,
            -16.499024
          ],
          [
            -68.124239,
            -16.498582
          ],
          [
            -68.124284,
            -16.498111
          ],
          [
            -68.124301,
            -16.497139
          ],
          [
            -68.124156,
            -16.497088
          ],
          [
            -68.124091,
            -16.496944
          ],
          [
            -68.12414,
            -16.496774
          ],
          [
            -68.124285,
            -16.49672
          ],
          [
            -68.124435,
            -16.496784
          ],
          [
            -68.124505,
            -16.496892
          ],
          [
            -68.125266,
            -16.496774
          ],
          [
            -68.125486,
            -16.496756
          ],
          [
            -68.12569,
            -16.496792
          ],
          [
            -68.126025,
            -16.496941
          ],
          [
            -68.126479,
            -16.497016
          ],
          [
            -68.127283,
            -16.496825
          ],
          [
            -68.127406,
            -16.496805
          ],
          [
            -68.127552,
            -16.496849
          ],
          [
            -68.12772,
            -16.496949
          ],
          [
            -68.127827,
            -16.497149
          ],
          [
            -68.127954,
            -16.497453
          ],
          [
            -68.128114,
            -16.497489
          ],
          [
            -68.128313,
            -16.497429
          ],
          [
            -68.128732,
            -16.497299
          ],
          [
            -68.129016,
            -16.497237
          ],
          [
            -68.129362,
            -16.497213
          ],
          [
            -68.129681,
            -16.497211
          ],
          [
            -68.129804,
            -16.497224
          ],
          [
            -68.129954,
            -16.497273
          ],
          [
            -68.130121,
            -16.497296
          ],
          [
            -68.130234,
            -16.497195
          ],
          [
            -68.131071,
            -16.49664
          ],
          [
            -68.133699,
            -16.495166
          ],
          [
            -68.134122,
            -16.495804
          ],
          [
            -68.135737,
            -16.498193
          ],
          [
            -68.13394,
            -16.500516
          ],
          [
            -68.133591,
            -16.500822
          ],
          [
            -68.133272,
            -16.50111
          ],
          [
            -68.13194,
            -16.502971
          ],
          [
            -68.131232,
            -16.503999
          ],
          [
            -68.13135,
            -16.504191
          ],
          [
            -68.131307,
            -16.504366
          ],
          [
            -68.13118,
            -16.504396
          ],
          [
            -68.13106,
            -16.504355
          ],
          [
            -68.128657,
            -16.506509
          ],
          [
            -68.130705,
            -16.508601
          ],
          [
            -68.129938,
            -16.509519
          ],
          [
            -68.12915,
            -16.510447
          ],
          [
            -68.129112,
            -16.510923
          ],
          [
            -68.129091,
            -16.511175
          ],
          [
            -68.129088,
            -16.511306
          ],
          [
            -68.129118,
            -16.511424
          ],
          [
            -68.129176,
            -16.511684
          ],
          [
            -68.1293,
            -16.511938
          ],
          [
            -68.129451,
            -16.512204
          ],
          [
            -68.129391,
            -16.512448
          ],
          [
            -68.129193,
            -16.51278
          ],
          [
            -68.129032,
            -16.513428
          ]
        ]
      },
      "properties": {}
    },
    {
      "type": "Feature",
      "geometry": {
        "type": "Point",
        "coordinates": [
          -68.112123,
          -16.490385
        ]
      },
      "properties": {}
    }
  ]
}