{"type":"FeatureCollection","features":[{"type":"Feature","geometry":{"type":"LineString","coordinates":[[-68.111871,-16.465362],[-68.111029,-16.464909],[-68.110927,-16.465097],[-68.110793,-16.465333],[-68.110586,-16.465207],[-68.110506,-16.465207],[-68.110578,-16.465606],[-68.110704,-16.465868],[-68.111418,-16.466607],[-68.111678,-16.466848],[-68.112182,-16.467178],[-68.112515,-16.467381],[-68.112818,-16.46752],[-68.113443,-16.46774],[-68.113617,-16.467807],[-68.113837,-16.467931],[-68.113955,-16.468028],[-68.114179,-16.468279],[-68.114395,-16.46851],[-68.114524,-16.468657],[-68.114634,-16.468745],[-68.114756,-16.468807],[-68.114864,-16.468794],[-68.115024,-16.468799],[-68.115167,-16.468754],[-68.115271,-16.468684],[-68.115469,-16.468472],[-68.115594,-16.468376],[-68.115733,-16.468329],[-68.115855,-16.468313],[-68.115965,-16.468331],[-68.116124,-16.468397],[-68.116239,-16.468499],[-68.116327,-16.46861],[-68.11638,-16.468751],[-68.116398,-16.468938],[-68.116352,-16.469127],[-68.116181,-16.469446],[-68.116062,-16.469719],[-68.116043,-16.469832],[-68.116136,-16.470325],[-68.116158,-16.470462],[-68.116164,-16.471032],[-68.116242,-16.471513],[-68.116268,-16.471706],[-68.116329,-16.471972],[-68.116396,-16.472156],[-68.117093,-16.473195],[-68.117383,-16.473603],[-68.117654,-16.474005],[-68.117792,-16.474213],[-68.117939,-16.474463],[-68.118013,-16.474591],[-68.118048,-16.474678],[-68.118104,-16.474665],[-68.118162,-16.474668],[-68.11823,-16.474686],[-68.118292,-16.474724],[-68.118338,-16.474785],[-68.118358,-16.474847],[-68.118366,-16.474919],[-68.11835,-16.474991],[-68.118289,-16.475069],[-68.118485,-16.475383],[-68.118957,-16.476133],[-68.119319,-16.476828],[-68.119581,-16.477255],[-68.120176,-16.478198],[-68.12032,-16.47844],[-68.120357,-16.478445],[-68.120394,-16.478471],[-68.1204,-16.478525],[-68.120384,-16.478562],[-68.120815,-16.47928],[-68.121047,-16.479691],[-68.121161,-16.479916],[-68.121342,-16.480402],[-68.121519,-16.480887],[-68.121704,-16.48134],[-68.121812,-16.48168],[-68.121866,-16.481857],[-68.121854,-16.481908],[-68.121889,-16.482101],[-68.121981,-16.48225],[-68.122326,-16.48263],[-68.122624,-16.483013],[-68.12292,-16.483449],[-68.123058,-16.483711],[-68.123265,-16.484193],[-68.123402,-16.484555],[-68.12364,-16.485208],[-68.123693,-16.485328],[-68.123956,-16.485699],[-68.124094,-16.48596],[-68.12417,-16.486153],[-68.124279,-16.486548],[-68.124386,-16.48688],[-68.124515,-16.487173],[-68.12477,-16.487713],[-68.125172,-16.48867],[-68.125164,-16.488765],[-68.125545,-16.489157],[-68.125588,-16.489257],[-68.125581,-16.489373],[-68.125381,-16.489898],[-68.125282,-16.490858],[-68.125199,-16.491489],[-68.125172,-16.492232],[-68.125199,-16.492708],[-68.125134,-16.492875],[-68.124939,-16.493163],[-68.124952,-16.493356],[-68.125023,-16.493466],[-68.125191,-16.493675],[-68.125513,-16.494054],[-68.125769,-16.494361],[-68.125804,-16.494432],[-68.125818,-16.494501],[-68.125822,-16.4946],[-68.1258,-16.495004],[-68.125816,-16.4952],[-68.125931,-16.495534],[-68.12603,-16.495796]]},"properties":{},"id":"93jfx"},{"type":"Feature","geometry":{"type":"Point","coordinates":[-68.127396,-16.495493]},"properties":{},"id":"cxthP"}],"properties":{"displayOnLoad":true,"inCaption":true,"browsable":true,"remoteData":{},"fields":[{"key":"name","type":"String"},{"key":"description","type":"Text"}],"name":"Minibus 204 - IDA (MIRADOR KILLI KILLI)","description":"Sindicato Pedro Domingo Murillo"},"id":"34f4c3be-3ec9-400b-9b82-c3be983df2dd","rank":0,"parent":"d23df254-f643-4edb-a658-d0d846a93127"}