{"type":"FeatureCollection","features":[{"type":"Feature","geometry":{"type":"Point","coordinates":[-68.112123,-16.490385]},"properties":{},"id":"SP9km"},{"type":"Feature","geometry":{"type":"LineString","coordinates":[[-68.112112,-16.490393],[-68.11229,-16.490216],[-68.112638,-16.490334],[-68.113373,-16.490776],[-68.113502,-16.490971],[-68.113604,-16.490915],[-68.113786,-16.490416],[-68.113953,-16.490411],[-68.114098,-16.490092],[-68.115181,-16.490061],[-68.116383,-16.490308],[-68.116962,-16.490884],[-68.117109,-16.490727],[-68.117027,-16.491275],[-68.117681,-16.491393],[-68.117166,-16.493805],[-68.116758,-16.495564],[-68.116871,-16.495797],[-68.117027,-16.495841],[-68.117431,-16.495665],[-68.117831,-16.495466],[-68.117954,-16.495344],[-68.118078,-16.495157],[-68.118327,-16.494791],[-68.11835,-16.494671],[-68.118393,-16.494652],[-68.118451,-16.49466],[-68.118503,-16.494689],[-68.118547,-16.494757],[-68.118518,-16.494844],[-68.118496,-16.494987],[-68.118121,-16.495605],[-68.11804,-16.495944],[-68.118169,-16.496054],[-68.118368,-16.496157],[-68.118496,-16.496237],[-68.118561,-16.49651],[-68.118545,-16.496834],[-68.118588,-16.49699],[-68.11884,-16.497086],[-68.120969,-16.498091],[-68.121881,-16.498093],[-68.122039,-16.498283],[-68.122203,-16.498512],[-68.122412,-16.49843],[-68.122654,-16.49841],[-68.122884,-16.498445],[-68.123094,-16.498525],[-68.123496,-16.498957],[-68.124051,-16.499153],[-68.124177,-16.499024],[-68.124239,-16.498582],[-68.124284,-16.498111],[-68.124301,-16.497139],[-68.124156,-16.497088],[-68.124091,-16.496944],[-68.12414,-16.496774],[-68.124285,-16.49672],[-68.124435,-16.496784],[-68.124505,-16.496892],[-68.125266,-16.496774],[-68.125486,-16.496756],[-68.12569,-16.496792],[-68.126025,-16.496941],[-68.126479,-16.497016],[-68.127283,-16.496825],[-68.127406,-16.496805],[-68.127552,-16.496849],[-68.12772,-16.496949],[-68.127827,-16.497149],[-68.127954,-16.497453],[-68.128114,-16.497489],[-68.128313,-16.497429],[-68.128732,-16.497299],[-68.129016,-16.497237],[-68.129362,-16.497213],[-68.129681,-16.497211],[-68.129804,-16.497224],[-68.129954,-16.497273],[-68.130121,-16.497296],[-68.130234,-16.497195],[-68.131071,-16.49664],[-68.133699,-16.495166],[-68.134122,-16.495804],[-68.135737,-16.498193],[-68.13394,-16.500516],[-68.133591,-16.500822],[-68.133272,-16.50111],[-68.13194,-16.502971],[-68.131232,-16.503999],[-68.13135,-16.504191],[-68.131307,-16.504366],[-68.13118,-16.504396],[-68.13106,-16.504355],[-68.128657,-16.506509],[-68.130705,-16.508601],[-68.129938,-16.509519],[-68.12915,-16.510447],[-68.129112,-16.510923],[-68.129091,-16.511175],[-68.129088,-16.511306],[-68.129118,-16.511424],[-68.129176,-16.511684],[-68.1293,-16.511938],[-68.129451,-16.512204],[-68.129391,-16.512448],[-68.129193,-16.51278],[-68.129032,-16.513428]]},"properties":{},"id":"BLU3k"}],"properties":{"displayOnLoad":true,"inCaption":true,"browsable":true,"name":"Minibus 254 - IDA (Mirador Montículo)","remoteData":{},"fields":[{"key":"name","type":"String"},{"key":"description","type":"Text"}],"description":"SINDICATO SEÑOR DE MAYO"},"id":"8bfdeb7b-421c-4ff6-9643-53c75c3a88bc","rank":1,"parent":"b13e0008-4f52-435c-b61c-1207f056b287"}