{"type":"FeatureCollection","features":[{"type":"Feature","geometry":{"type":"LineString","coordinates":[[-68.122997,-16.477175],[-68.122793,-16.477602],[-68.121999,-16.47698],[-68.121398,-16.476563],[-68.120926,-16.476826],[-68.120717,-16.476507],[-68.119585,-16.477253],[-68.120293,-16.478384],[-68.1204,-16.478461],[-68.120406,-16.478543],[-68.120706,-16.479094],[-68.121012,-16.479628],[-68.121151,-16.479896],[-68.121285,-16.480235],[-68.121505,-16.480821],[-68.121613,-16.481176],[-68.121709,-16.481387],[-68.121924,-16.48205],[-68.121972,-16.482256],[-68.122187,-16.482467],[-68.122391,-16.482712],[-68.122892,-16.483412],[-68.123302,-16.484277],[-68.123453,-16.484647],[-68.123619,-16.485105],[-68.123748,-16.485387],[-68.123957,-16.485717],[-68.124177,-16.486097],[-68.12429,-16.486601],[-68.124467,-16.487084],[-68.124633,-16.487439],[-68.125134,-16.488609],[-68.125159,-16.488724],[-68.125016,-16.489118],[-68.124748,-16.489686],[-68.124129,-16.490946],[-68.124086,-16.491954],[-68.124107,-16.493301],[-68.124354,-16.495327],[-68.124343,-16.496633],[-68.124526,-16.496921],[-68.12445,-16.497117],[-68.125813,-16.497631],[-68.125062,-16.498713],[-68.124526,-16.499698],[-68.123989,-16.500511],[-68.123952,-16.50076],[-68.124011,-16.501004],[-68.124247,-16.501611],[-68.124198,-16.501881],[-68.124536,-16.50221],[-68.124794,-16.502308]]},"properties":{},"id":"nTA66"}],"properties":{"displayOnLoad":true,"inCaption":true,"browsable":true,"name":"Minibus 364 - IDA (PARQUE LAICACOTA)","fields":[{"key":"name","type":"String"},{"key":"description","type":"Text"}],"remoteData":{},"description":"SINDICATO SEÑOR DE MAYO"},"id":"0a5a5bfc-8c95-4fea-8400-3a8438a2b533","rank":0,"parent":"cb16b924-8ea2-484e-ba5d-f15bf12da918"}