{"type":"FeatureCollection","features":[{"type":"Feature","geometry":{"type":"Point","coordinates":[-68.128978,-16.51336]},"properties":{},"id":"s3W2m"},{"type":"Feature","geometry":{"type":"LineString","coordinates":[[-68.128957,-16.51331],[-68.128356,-16.512605],[-68.127916,-16.512286],[-68.125797,-16.510584],[-68.124515,-16.509545],[-68.124644,-16.50899],[-68.129697,-16.50543],[-68.130952,-16.504331],[-68.130936,-16.504093],[-68.131006,-16.503879],[-68.133109,-16.500915],[-68.133962,-16.50031],[-68.135582,-16.498146],[-68.133667,-16.495184],[-68.13004,-16.497303],[-68.12959,-16.497221],[-68.12856,-16.497262],[-68.128238,-16.49743],[-68.127937,-16.497471],[-68.127508,-16.496751],[-68.126349,-16.496995],[-68.125513,-16.496789],[-68.124611,-16.496874],[-68.12429,-16.497121],[-68.124268,-16.499074],[-68.124644,-16.499341],[-68.124654,-16.499753],[-68.124129,-16.499763],[-68.123324,-16.500061],[-68.123206,-16.500307],[-68.122991,-16.500513],[-68.122401,-16.500503],[-68.121972,-16.500174],[-68.121865,-16.499444],[-68.119601,-16.499352],[-68.119247,-16.499866],[-68.117552,-16.499814],[-68.117777,-16.498764],[-68.118442,-16.498652],[-68.11973,-16.496575],[-68.119762,-16.493294],[-68.119537,-16.491422],[-68.119172,-16.491371],[-68.119118,-16.492664],[-68.1187,-16.493788],[-68.118453,-16.495001],[-68.118378,-16.494734],[-68.117895,-16.495444],[-68.116844,-16.495886],[-68.116822,-16.495269],[-68.11767,-16.491443],[-68.117069,-16.491278],[-68.117037,-16.490888],[-68.116297,-16.490291],[-68.115213,-16.490085],[-68.114129,-16.490096],[-68.113915,-16.490414],[-68.113765,-16.490414],[-68.113571,-16.49097],[-68.113035,-16.490545],[-68.11237,-16.490219]]},"properties":{},"id":"oUrt0"}],"properties":{"displayOnLoad":true,"inCaption":true,"browsable":true,"name":"Minibus 254 - VUELTA (Mirador Montículo)","remoteData":{},"fields":[{"key":"name","type":"String"},{"key":"description","type":"Text"}],"description":"SINDICATO SEÑOR DE MAYO"},"id":"1131cb1a-631f-4d7b-8f33-f46a469366f9","rank":1,"parent":"b13e0008-4f52-435c-b61c-1207f056b287"}